EUTELSAT 21B            
1 38992U 12062B   25303.94524069  .00000140  00000+0  00000+0 0  9997
2 38992   0.0730  13.1306 0003005 218.0700 170.2035  1.00271446 47524
EUTELSAT 70B            
1 39020U 12069A   25303.84076603 -.00000033  00000+0  00000+0 0  9994
2 39020   0.0666 352.2593 0004351 227.0631 193.2705  1.00269869 47208
EUTELSAT 117 WEST A     
1 39122U 13012A   25303.66084667 -.00000003  00000+0  00000+0 0  9992
2 39122   0.0168 323.2372 0003025 265.1192 292.0097  1.00271166 46139
EUTELSAT 7B             
1 39163U 13022A   25303.82822432  .00000058  00000+0  00000+0 0  9995
2 39163   0.0769  25.0573 0002337 282.6697  36.8427  1.00272256 45658
EXPRESS-AT1             
1 39612U 14010A   25303.90931973  .00000089  00000+0  00000+0 0  9996
2 39612   0.0181 250.5736 0000444 205.6496 326.6209  1.00270554 42519
EXPRESS-AT2             
1 39613U 14010B   25303.78322067 -.00000271  00000+0  00000+0 0  9995
2 39613   0.0123 253.1422 0000536  47.2448 160.8036  1.00269165 42204
EUTELSAT 3B             
1 39773U 14030A   25303.82822432  .00000030  00000+0  00000+0 0  9992
2 39773   0.0709  23.0953 0004507 187.3791 130.1835  1.00270796 41762
EUTELSAT 115 WEST B     
1 40425U 15010B   25303.52793372 -.00000016  00000+0  00000+0 0  9999
2 40425   0.0120 100.0221 0000444 200.7751 173.4780  1.00273614 39095
